ICEYE-X7                
1 46496U 20068L   26199.88816363  .00006078  00000+0  19850-3 0  9991
2 46496  97.7514 167.8734 0006415 197.9450 162.1565 15.32142778319640
ICEYE-X6                
1 46497U 20068M   26199.84711096  .00001224  00000+0  91791-4 0  9998
2 46497  98.0993 195.0377 0006902 359.8999   0.2223 15.04677964317998
ICEYE-X65               
1 66300U 25248H   26199.75068856  .00001432  00000+0  10775-3 0  9990
2 66300  45.4068 328.2022 0005811 217.0085 143.0397 15.07940586 40287
ICEYE-X66               
1 66301U 25248J   26199.74543543  .00001764  00000+0  12485-3 0  9999
2 66301  45.4025 327.2735 0005527 213.3105 146.7430 15.09191418 40278
ICEYE-X67               
1 66302U 25248K   26199.63777366  .00001571  00000+0  11297-3 0  9996
2 66302  45.4061 327.4210 0007003 213.0395 147.0050 15.09172150 40272
ICEYE-X60               
1 66753U 25276CR  26199.18014089  .00001767  00000+0  11064-3 0  9992
2 66753  97.4172 270.9282 0000988 277.9557  82.1561 15.10628567 35042
ICEYE-X61               
1 66754U 25276CS  26199.78988192  .00001532  00000+0  77257-4 0  9991
2 66754  97.4191 272.6909 0002402 198.6183 161.4963 15.18620506 35215
ICEYE-X62               
1 66755U 25276CT  26199.73711764  .00002501  00000+0  15704-3 0  9991
2 66755  97.4190 270.9581 0001069 211.7740 148.3425 15.10165971 35091
ICEYE-X63               
1 67372U 26004K   26199.74748737  .00000424  00000+0  51680-4 0  9994
2 67372  97.8015 197.8957 0005176  42.8678 317.2941 14.88352420 27998
ICEYE-X64               
1 67373U 26004L   26199.79705811  .00000545  00000+0  65316-4 0  9991
2 67373  97.8029 197.8623 0007047  44.3532 315.8248 14.87991929 27995
